[{"OBJECT_NAME":"STARLINK-31223","OBJECT_ID":"2024-019N","EPOCH":"2026-03-09T12:04:13.415520","MEAN_MOTION":15.2757045,"ECCENTRICITY":0.00012583,"INCLINATION":42.999,"RA_OF_ASC_NODE":249.9997,"ARG_OF_PERICENTER":224.9232,"MEAN_ANOMALY":135.1518,"EPHEMERIS_TYPE":0,"CLASSIFICATION_TYPE":"U","NORAD_CAT_ID":58865,"ELEMENT_SET_NO":999,"REV_AT_EPOCH":11903,"BSTAR":6.2520406e-5,"MEAN_MOTION_DOT":1.458e-5,"MEAN_MOTION_DDOT":0},{"OBJECT_NAME":"KUIPER-00204","OBJECT_ID":"2025-301N","EPOCH":"2026-03-09T09:32:32.981280","MEAN_MOTION":15.260884,"ECCENTRICITY":0.00030716,"INCLINATION":51.887,"RA_OF_ASC_NODE":71.6415,"ARG_OF_PERICENTER":354.8934,"MEAN_ANOMALY":5.2016,"EPHEMERIS_TYPE":0,"CLASSIFICATION_TYPE":"U","NORAD_CAT_ID":67145,"ELEMENT_SET_NO":999,"REV_AT_EPOCH":1373,"BSTAR":0.00079568218,"MEAN_MOTION_DOT":0.00020516,"MEAN_MOTION_DDOT":0}]
