STARLINK-31223          
1 58865U 24019N   26068.50293305  .00001458  00000+0  62520-4 0  9993
2 58865  42.9990 249.9997 0001258 224.9232 135.1518 15.27570450119030
KUIPER-00204            
1 67145U 25301N   26068.39760395  .00020516  00000+0  79568-3 0  9999
2 67145  51.8870  71.6415 0003071 354.8934   5.2016 15.26088400 13737
